{"type": "FeatureCollection", "features": [ {"type": "Feature", "properties": {"norad_id": 34955, "name": "COSMOS 2251 DEB", "group": "cosmos-2251-debris", "lat": 73.99827815625191, "lon": -28.9785601081073, "alt_km": 595.8320455404673, "timestamp": "2025-12-13T16:48:33.105479+00:00", "meta": {"OBJECT_NAME": "COSMOS 2251 DEB", "OBJECT_ID": "1993-036AEJ", "EPOCH": "2025-12-11T10:00:38.398176", "MEAN_MOTION": 15.00495775, "ECCENTRICITY": 0.00779991, "INCLINATION": 74.0375, "RA_OF_ASC_NODE": 249.1952, "ARG_OF_PERICENTER": 319.1032, "MEAN_ANOMALY": 40.4318, "EPHEMERIS_TYPE": 0, "CLASSIFICATION_TYPE": "U", "NORAD_CAT_ID": 34955, "ELEMENT_SET_NO": 999, "REV_AT_EPOCH": 90014, "BSTAR": 0.0014966224, "MEAN_MOTION_DOT": 0.00020131, "MEAN_MOTION_DDOT": 0}, "tle": {"line1": "1 34955U 93036AEJ 25345.41711109  .00020131  00000+0  14966-2 0  9994", "line2": "2 34955  74.0375 249.1952 0077999 319.1032  40.4318 15.00495775900143"}}, "geometry": {"type": "Point", "coordinates": [-28.9785601081073, 73.99827815625191]}}, {"type": "Feature", "properties": {"norad_id": 34962, "name": "COSMOS 2251 DEB", "group": "cosmos-2251-debris", "lat": 49.09498132707218, "lon": -149.12762321004115, "alt_km": 736.2589823527924, "timestamp": "2025-12-13T16:48:33.105489+00:00", "meta": {"OBJECT_NAME": "COSMOS 2251 DEB", "OBJECT_ID": "1993-036AER", "EPOCH": "2025-12-12T14:00:48.043296", "MEAN_MOTION": 14.46516615, "ECCENTRICITY": 0.00188041, "INCLINATION": 74.0299, "RA_OF_ASC_NODE": 193.656, "ARG_OF_PERICENTER": 306.6555, "MEAN_ANOMALY": 53.2874, "EPHEMERIS_TYPE": 0, "CLASSIFICATION_TYPE": "U", "NORAD_CAT_ID": 34962, "ELEMENT_SET_NO": 999, "REV_AT_EPOCH": 87576, "BSTAR": 0.0006546576, "MEAN_MOTION_DOT": 2.336e-05, "MEAN_MOTION_DDOT": 0}, "tle": {"line1": "1 34962U 93036AER 25346.58388939  .00002336  00000+0  65466-3 0  9991", "line2": "2 34962  74.0299 193.6560 0018804 306.6555  53.2874 14.46516615875769"}}, "geometry": {"type": "Point", "coordinates": [-149.12762321004115, 49.09498132707218]}}, {"type": "Feature", "properties": {"norad_id": 34963, "name": "COSMOS 2251 DEB", "group": "cosmos-2251-debris", "lat": -32.52088035934998, "lon": 30.531449242858113, "alt_km": 727.1229446064945, "timestamp": "2025-12-13T16:48:33.105499+00:00", "meta": {"OBJECT_NAME": "COSMOS 2251 DEB", "OBJECT_ID": "1993-036AES", "EPOCH": "2025-12-12T21:06:37.533312", "MEAN_MOTION": 14.5108556, "ECCENTRICITY": 0.00425092, "INCLINATION": 74.1719, "RA_OF_ASC_NODE": 42.4827, "ARG_OF_PERICENTER": 238.9907, "MEAN_ANOMALY": 120.7077, "EPHEMERIS_TYPE": 0, "CLASSIFICATION_TYPE": "U", "NORAD_CAT_ID": 34963, "ELEMENT_SET_NO": 999, "REV_AT_EPOCH": 86803, "BSTAR": 0.0018603991, "MEAN_MOTION_DOT": 7.439e-05, "MEAN_MOTION_DDOT": 0}, "tle": {"line1": "1 34963U 93036AES 25346.87960108  .00007439  00000+0  18604-2 0  9998", "line2": "2 34963  74.1719  42.4827 0042509 238.9907 120.7077 14.51085560868035"}}, "geometry": {"type": "Point", "coordinates": [30.531449242858113, -32.52088035934998]}}, {"type": "Feature", "properties": {"norad_id": 34964, "name": "COSMOS 2251 DEB", "group": "cosmos-2251-debris", "lat": 10.525967297251402, "lon": 163.10799250533645, "alt_km": 765.6926024848208, "timestamp": "2025-12-13T16:48:33.105509+00:00", "meta": {"OBJECT_NAME": "COSMOS 2251 DEB", "OBJECT_ID": "1993-036AET", "EPOCH": "2025-12-12T17:42:31.829760", "MEAN_MOTION": 14.00606472, "ECCENTRICITY": 0.0212761, "INCLINATION": 73.9721, "RA_OF_ASC_NODE": 347.8441, "ARG_OF_PERICENTER": 206.277, "MEAN_ANOMALY": 152.7449, "EPHEMERIS_TYPE": 0, "CLASSIFICATION_TYPE": "U", "NORAD_CAT_ID": 34964, "ELEMENT_SET_NO": 999, "REV_AT_EPOCH": 84478, "BSTAR": 0.0019398871, "MEAN_MOTION_DOT": 3.487e-05, "MEAN_MOTION_DDOT": 0}, "tle": {"line1": "1 34964U 93036AET 25346.73786840  .00003487  00000+0  19399-2 0  9994", "line2": "2 34964  73.9721 347.8441 0212761 206.2770 152.7449 14.00606472844784"}}, "geometry": {"type": "Point", "coordinates": [163.10799250533645, 10.525967297251402]}}, {"type": "Feature", "properties": {"norad_id": 34965, "name": "COSMOS 2251 DEB", "group": "cosmos-2251-debris", "lat": 44.215542131332676, "lon": 142.82421095678933, "alt_km": 742.5289633461953, "timestamp": "2025-12-13T16:48:33.105519+00:00", "meta": {"OBJECT_NAME": "COSMOS 2251 DEB", "OBJECT_ID": "1993-036AEU", "EPOCH": "2025-12-12T15:44:05.263872", "MEAN_MOTION": 14.48707125, "ECCENTRICITY": 0.00265319, "INCLINATION": 74.0513, "RA_OF_ASC_NODE": 128.6243, "ARG_OF_PERICENTER": 255.9936, "MEAN_ANOMALY": 103.8273, "EPHEMERIS_TYPE": 0, "CLASSIFICATION_TYPE": "U", "NORAD_CAT_ID": 34965, "ELEMENT_SET_NO": 999, "REV_AT_EPOCH": 87112, "BSTAR": 0.0006042892, "MEAN_MOTION_DOT": 2.261e-05, "MEAN_MOTION_DDOT": 0}, "tle": {"line1": "1 34965U 93036AEU 25346.65561648  .00002261  00000+0  60429-3 0  9993", "line2": "2 34965  74.0513 128.6243 0026531 255.9936 103.8273 14.48707125871123"}}, "geometry": {"type": "Point", "coordinates": [142.82421095678933, 44.215542131332676]}}, {"type": "Feature", "properties": {"norad_id": 34967, "name": "COSMOS 2251 DEB", "group": "cosmos-2251-debris", "lat": -55.22532802745014, "lon": -132.35262366585806, "alt_km": 754.1751478181177, "timestamp": "2025-12-13T16:48:33.105528+00:00", "meta": {"OBJECT_NAME": "COSMOS 2251 DEB", "OBJECT_ID": "1993-036AEW", "EPOCH": "2025-12-13T00:27:20.673792", "MEAN_MOTION": 14.44269018, "ECCENTRICITY": 0.00380101, "INCLINATION": 73.9933, "RA_OF_ASC_NODE": 253.3374, "ARG_OF_PERICENTER": 39.5345, "MEAN_ANOMALY": 320.8573, "EPHEMERIS_TYPE": 0, "CLASSIFICATION_TYPE": "U", "NORAD_CAT_ID": 34967, "ELEMENT_SET_NO": 999, "REV_AT_EPOCH": 64961, "BSTAR": 0.0011451852, "MEAN_MOTION_DOT": 3.946e-05, "MEAN_MOTION_DDOT": 0}, "tle": {"line1": "1 34967U 93036AEW 25347.01898928  .00003946  00000+0  11452-2 0  9992", "line2": "2 34967  73.9933 253.3374 0038010  39.5345 320.8573 14.44269018649616"}}, "geometry": {"type": "Point", "coordinates": [-132.35262366585806, -55.22532802745014]}}, {"type": "Feature", "properties": {"norad_id": 34968, "name": "COSMOS 2251 DEB", "group": "cosmos-2251-debris", "lat": -28.123884440057065, "lon": 74.0379024278953, "alt_km": 756.4661869924939, "timestamp": "2025-12-13T16:48:33.105538+00:00", "meta": {"OBJECT_NAME": "COSMOS 2251 DEB", "OBJECT_ID": "1993-036AEX", "EPOCH": "2025-12-12T03:39:29.952000", "MEAN_MOTION": 14.59405084, "ECCENTRICITY": 0.00865843, "INCLINATION": 74.0388, "RA_OF_ASC_NODE": 248.1884, "ARG_OF_PERICENTER": 8.6879, "MEAN_ANOMALY": 351.576, "EPHEMERIS_TYPE": 0, "CLASSIFICATION_TYPE": "U", "NORAD_CAT_ID": 34968, "ELEMENT_SET_NO": 999, "REV_AT_EPOCH": 88469, "BSTAR": 0.00026640789, "MEAN_MOTION_DOT": 1.298e-05, "MEAN_MOTION_DDOT": 0}, "tle": {"line1": "1 34968U 93036AEX 25346.15243000  .00001298  00000+0  26641-3 0  9997", "line2": "2 34968  74.0388 248.1884 0086584   8.6879 351.5760 14.59405084884698"}}, "geometry": {"type": "Point", "coordinates": [74.0379024278953, -28.123884440057065]}}, {"type": "Feature", "properties": {"norad_id": 34969, "name": "COSMOS 2251 DEB", "group": "cosmos-2251-debris", "lat": -26.109906279618176, "lon": -150.53506522136405, "alt_km": 757.3278439878968, "timestamp": "2025-12-13T16:48:33.105576+00:00", "meta": {"OBJECT_NAME": "COSMOS 2251 DEB", "OBJECT_ID": "1993-036AEY", "EPOCH": "2025-12-12T19:44:01.430592", "MEAN_MOTION": 14.3225634, "ECCENTRICITY": 0.00736223, "INCLINATION": 74.0145, "RA_OF_ASC_NODE": 22.9925, "ARG_OF_PERICENTER": 156.2014, "MEAN_ANOMALY": 204.2571, "EPHEMERIS_TYPE": 0, "CLASSIFICATION_TYPE": "U", "NORAD_CAT_ID": 34969, "ELEMENT_SET_NO": 999, "REV_AT_EPOCH": 65138, "BSTAR": 0.00040409386, "MEAN_MOTION_DOT": 1.097e-05, "MEAN_MOTION_DDOT": 0}, "tle": {"line1": "1 34969U 93036AEY 25346.82223878  .00001097  00000+0  40409-3 0  9998", "line2": "2 34969  74.0145  22.9925 0073622 156.2014 204.2571 14.32256340651386"}}, "geometry": {"type": "Point", "coordinates": [-150.53506522136405, -26.109906279618176]}}, {"type": "Feature", "properties": {"norad_id": 34971, "name": "COSMOS 2251 DEB", "group": "cosmos-2251-debris", "lat": -70.98976127114582, "lon": 159.69651732242724, "alt_km": 731.5588192331061, "timestamp": "2025-12-13T16:48:33.105586+00:00", "meta": {"OBJECT_NAME": "COSMOS 2251 DEB", "OBJECT_ID": "1993-036AFA", "EPOCH": "2025-12-11T13:03:07.178112", "MEAN_MOTION": 14.55631176, "ECCENTRICITY": 0.00696698, "INCLINATION": 73.9786, "RA_OF_ASC_NODE": 287.2832, "ARG_OF_PERICENTER": 153.3092, "MEAN_ANOMALY": 329.2446, "EPHEMERIS_TYPE": 0, "CLASSIFICATION_TYPE": "U", "NORAD_CAT_ID": 34971, "ELEMENT_SET_NO": 999, "REV_AT_EPOCH": 66155, "BSTAR": 0.00028423964, "MEAN_MOTION_DOT": 1.251e-05, "MEAN_MOTION_DDOT": 0}, "tle": {"line1": "1 34971U 93036AFA 25345.54383308  .00001251  00000+0  28424-3 0  9999", "line2": "2 34971  73.9786 287.2832 0069669 153.3092 329.2446 14.55631176661559"}}, "geometry": {"type": "Point", "coordinates": [159.69651732242724, -70.98976127114582]}}, {"type": "Feature", "properties": {"norad_id": 34972, "name": "COSMOS 2251 DEB", "group": "cosmos-2251-debris", "lat": -27.211861594664878, "lon": -123.52604546804947, "alt_km": 633.4871460329887, "timestamp": "2025-12-13T16:48:33.105597+00:00", "meta": {"OBJECT_NAME": "COSMOS 2251 DEB", "OBJECT_ID": "1993-036AFB", "EPOCH": "2025-12-11T15:39:21.883968", "MEAN_MOTION": 14.72853144, "ECCENTRICITY": 0.00337724, "INCLINATION": 73.9883, "RA_OF_ASC_NODE": 51.9818, "ARG_OF_PERICENTER": 211.2794, "MEAN_ANOMALY": 302.0025, "EPHEMERIS_TYPE": 0, "CLASSIFICATION_TYPE": "U", "NORAD_CAT_ID": 34972, "ELEMENT_SET_NO": 999, "REV_AT_EPOCH": 87634, "BSTAR": 0.0021673296, "MEAN_MOTION_DOT": 0.00013997, "MEAN_MOTION_DDOT": 0}, "tle": {"line1": "1 34972U 93036AFB 25345.65233662  .00013997  00000+0  21673-2 0  9997", "line2": "2 34972  73.9883  51.9818 0033772 211.2794 302.0025 14.72853144876344"}}, "geometry": {"type": "Point", "coordinates": [-123.52604546804947, -27.211861594664878]}}]}